[
    {
        "OBJECT_NAME": "NAVSTAR 16 (USA 47)",
        "OBJECT_ID": "1989-085A",
        "EPOCH": "2025-03-01T01:07:38.550144",
        "MEAN_MOTION": 1.89426214,
        "ECCENTRICITY": 0.0009182,
        "INCLINATION": 54.0017,
        "RA_OF_ASC_NODE": 200.3385,
        "ARG_OF_PERICENTER": 70.0729,
        "MEAN_ANOMALY": 114.8499,
        "EPHEMERIS_TYPE": 0,
        "CLASSIFICATION_TYPE": "U",
        "NORAD_CAT_ID": 20302,
        "ELEMENT_SET_NO": 999,
        "REV_AT_EPOCH": 24957,
        "BSTAR": 0,
        "MEAN_MOTION_DOT": 3.6e-07,
        "MEAN_MOTION_DDOT": 0
    },
    {
        "OBJECT_NAME": "NAVSTAR 17 (USA 49)",
        "OBJECT_ID": "1989-097A",
        "EPOCH": "2025-03-03T19:33:12.904416",
        "MEAN_MOTION": 1.8917518,
        "ECCENTRICITY": 0.0024636,
        "INCLINATION": 56.1748,
        "RA_OF_ASC_NODE": 27.285,
        "ARG_OF_PERICENTER": 312.9701,
        "MEAN_ANOMALY": 230.2501,
        "EPHEMERIS_TYPE": 0,
        "CLASSIFICATION_TYPE": "U",
        "NORAD_CAT_ID": 20361,
        "ELEMENT_SET_NO": 999,
        "REV_AT_EPOCH": 24044,
        "BSTAR": 0,
        "MEAN_MOTION_DOT": -6.9e-07,
        "MEAN_MOTION_DDOT": 0
    },
    {
        "OBJECT_NAME": "NAVSTAR 18 (USA 50)",
        "OBJECT_ID": "1990-008A",
        "EPOCH": "2025-03-03T09:04:20.691264",
        "MEAN_MOTION": 1.89597739,
        "ECCENTRICITY": 0.0015276,
        "INCLINATION": 54.7727,
        "RA_OF_ASC_NODE": 150.1126,
        "ARG_OF_PERICENTER": 274.3058,
        "MEAN_ANOMALY": 140.2947,
        "EPHEMERIS_TYPE": 0,
        "CLASSIFICATION_TYPE": "U",
        "NORAD_CAT_ID": 20452,
        "ELEMENT_SET_NO": 999,
        "REV_AT_EPOCH": 24750,
        "BSTAR": 0,
        "MEAN_MOTION_DOT": 2.1e-07,
        "MEAN_MOTION_DDOT": 0
    },
    {
        "OBJECT_NAME": "NAVSTAR 19 (USA 54)",
        "OBJECT_ID": "1990-025A",
        "EPOCH": "2025-03-01T09:02:56.497920",
        "MEAN_MOTION": 1.91039085,
        "ECCENTRICITY": 0.0043043,
        "INCLINATION": 53.7725,
        "RA_OF_ASC_NODE": 263.1371,
        "ARG_OF_PERICENTER": 218.123,
        "MEAN_ANOMALY": 353.8125,
        "EPHEMERIS_TYPE": 0,
        "CLASSIFICATION_TYPE": "U",
        "NORAD_CAT_ID": 20533,
        "ELEMENT_SET_NO": 999,
        "REV_AT_EPOCH": 24598,
        "BSTAR": 0,
        "MEAN_MOTION_DOT": 3.5e-07,
        "MEAN_MOTION_DDOT": 0
    },
    {
        "OBJECT_NAME": "NAVSTAR 20 (USA 63)",
        "OBJECT_ID": "1990-068A",
        "EPOCH": "2025-03-03T09:06:00.796032",
        "MEAN_MOTION": 1.87186098,
        "ECCENTRICITY": 0.0037485,
        "INCLINATION": 54.5412,
        "RA_OF_ASC_NODE": 90.952,
        "ARG_OF_PERICENTER": 320.882,
        "MEAN_ANOMALY": 137.8509,
        "EPHEMERIS_TYPE": 0,
        "CLASSIFICATION_TYPE": "U",
        "NORAD_CAT_ID": 20724,
        "ELEMENT_SET_NO": 999,
        "REV_AT_EPOCH": 24109,
        "BSTAR": 0,
        "MEAN_MOTION_DOT": 5e-08,
        "MEAN_MOTION_DDOT": 0
    },
    {
        "OBJECT_NAME": "NAVSTAR 21 (USA 64)",
        "OBJECT_ID": "1990-088A",
        "EPOCH": "2025-02-28T14:19:04.867104",
        "MEAN_MOTION": 1.87752294,
        "ECCENTRICITY": 0.0024517,
        "INCLINATION": 56.2623,
        "RA_OF_ASC_NODE": 25.9354,
        "ARG_OF_PERICENTER": 284.5845,
        "MEAN_ANOMALY": 189.4181,
        "EPHEMERIS_TYPE": 0,
        "CLASSIFICATION_TYPE": "U",
        "NORAD_CAT_ID": 20830,
        "ELEMENT_SET_NO": 999,
        "REV_AT_EPOCH": 24391,
        "BSTAR": 0,
        "MEAN_MOTION_DOT": -6.2e-07,
        "MEAN_MOTION_DDOT": 0
    },
    {
        "OBJECT_NAME": "NAVSTAR 24 (USA 79)",
        "OBJECT_ID": "1992-009A",
        "EPOCH": "2025-02-24T12:26:14.906976",
        "MEAN_MOTION": 1.91828653,
        "ECCENTRICITY": 0.0050997,
        "INCLINATION": 54.2186,
        "RA_OF_ASC_NODE": 183.5206,
        "ARG_OF_PERICENTER": 54.2852,
        "MEAN_ANOMALY": 327.6352,
        "EPHEMERIS_TYPE": 0,
        "CLASSIFICATION_TYPE": "U",
        "NORAD_CAT_ID": 21890,
        "ELEMENT_SET_NO": 999,
        "REV_AT_EPOCH": 23693,
        "BSTAR": 0,
        "MEAN_MOTION_DOT": 1.4e-07,
        "MEAN_MOTION_DDOT": 0
    },
    {
        "OBJECT_NAME": "NAVSTAR 25 (USA 80)",
        "OBJECT_ID": "1992-019A",
        "EPOCH": "2025-02-27T09:31:00.889248",
        "MEAN_MOTION": 1.87660786,
        "ECCENTRICITY": 0.0030799,
        "INCLINATION": 55.3318,
        "RA_OF_ASC_NODE": 321.7598,
        "ARG_OF_PERICENTER": 335.3186,
        "MEAN_ANOMALY": 136.0934,
        "EPHEMERIS_TYPE": 0,
        "CLASSIFICATION_TYPE": "U",
        "NORAD_CAT_ID": 21930,
        "ELEMENT_SET_NO": 999,
        "REV_AT_EPOCH": 23254,
        "BSTAR": 0,
        "MEAN_MOTION_DOT": -4.8e-07,
        "MEAN_MOTION_DDOT": 0
    }
]