20302,NAVSTAR 16 (USA 47),1989,760.19,-1.0,-,54.0,Inactive,0,MEO,USA,USA,Unknown,Unknown,Unknown,1 20302U 89085A   25060.04697396  .00000036  00000+0  00000+0 0  9991,2 20302  54.0017 200.3385 0009182  70.0729 114.8499  1.89426214249572,1.89426214,0.0009182,MEO
20361,NAVSTAR 17 (USA 49),1989,761.2,-1.0,-,56.17,Inactive,0,MEO,USA,USA,Unknown,Unknown,Unknown,1 20361U 89097A   25062.81473269 -.00000069  00000+0  00000+0 0  9994,2 20361  56.1748  27.2850 0024636 312.9701 230.2501  1.89175180240440,1.8917518,0.0024636,MEO
20452,NAVSTAR 18 (USA 50),1990,759.5,-1.0,-,54.77,Inactive,0,MEO,USA,USA,Unknown,Unknown,Unknown,1 20452U 90008A   25062.37801726  .00000021  00000+0  00000+0 0  9990,2 20452  54.7727 150.1126 0015276 274.3058 140.2947  1.89597739247506,1.89597739,0.0015276,MEO
20533,NAVSTAR 19 (USA 54),1990,753.77,-1.0,-,53.77,Inactive,0,MEO,USA,USA,Unknown,Unknown,Unknown,1 20533U 90025A   25060.37704280  .00000035  00000+0  00000+0 0  9999,2 20533  53.7725 263.1371 0043043 218.1230 353.8125  1.91039085245989,1.91039085,0.0043043,MEO
20724,NAVSTAR 20 (USA 63),1990,769.29,-1.0,-,54.54,Inactive,0,MEO,USA,USA,Unknown,Unknown,Unknown,1 20724U 90068A   25062.37917588  .00000005  00000+0  00000+0 0  9994,2 20724  54.5412  90.9520 0037485 320.8820 137.8509  1.87186098241090,1.87186098,0.0037485,MEO
20830,NAVSTAR 21 (USA 64),1990,766.97,-1.0,-,56.26,Inactive,0,MEO,USA,USA,Unknown,Unknown,Unknown,1 20830U 90088A   25059.59658411 -.00000062  00000+0  00000+0 0  9995,2 20830  56.2623  25.9354 0024517 284.5845 189.4181  1.87752294243918,1.87752294,0.0024517,MEO
21890,NAVSTAR 24 (USA 79),1992,750.67,-1.0,-,54.22,Inactive,0,MEO,USA,USA,Unknown,Unknown,Unknown,1 21890U 92009A   25055.51822809  .00000014  00000+0  00000+0 0  9995,2 21890  54.2186 183.5206 0050997  54.2852 327.6352  1.91828653236933,1.91828653,0.0050997,MEO
21930,NAVSTAR 25 (USA 80),1992,767.34,-1.0,-,55.33,Inactive,0,MEO,USA,USA,Unknown,Unknown,Unknown,1 21930U 92019A   25058.39653807 -.00000048  00000+0  00000+0 0  9998,2 21930  55.3318 321.7598 0030799 335.3186 136.0934  1.87660786232545,1.87660786,0.0030799,MEO
